CCSDS_OMM_VERS = 2.0
CREATION_DATE  = 
ORIGINATOR     = 

OBJECT_NAME    = STARLINK-36773
OBJECT_ID      = 2026-032E
CENTER_NAME    = EARTH
REF_FRAME      = TEME
TIME_SYSTEM    = UTC
MEAN_ELEMENT_THEORY = SGP/SGP4

EPOCH          = 2026-03-03T18:00:01.999296
MEAN_MOTION    = 15.75190689
ECCENTRICITY   = .0001548
INCLINATION    = 97.2838
RA_OF_ASC_NODE = 248.9522
ARG_OF_PERICENTER = 94.8427
MEAN_ANOMALY   = 92.4870

EPHEMERIS_TYPE = 0
CLASSIFICATION_TYPE = U
NORAD_CAT_ID   = 67801
ELEMENT_SET_NO = 999
REV_AT_EPOCH   = 376
BSTAR          = -.20124E-3
MEAN_MOTION_DOT = -.30042E-3
MEAN_MOTION_DDOT = 0

CCSDS_OMM_VERS = 2.0
CREATION_DATE  = 
ORIGINATOR     = 

OBJECT_NAME    = STARLINK-36739
OBJECT_ID      = 2026-032F
CENTER_NAME    = EARTH
REF_FRAME      = TEME
TIME_SYSTEM    = UTC
MEAN_ELEMENT_THEORY = SGP/SGP4

EPOCH          = 2026-03-03T18:22:59.464992
MEAN_MOTION    = 15.80932508
ECCENTRICITY   = .0001483
INCLINATION    = 97.2838
RA_OF_ASC_NODE = 249.0033
ARG_OF_PERICENTER = 101.8320
MEAN_ANOMALY   = 258.3115

EPHEMERIS_TYPE = 0
CLASSIFICATION_TYPE = U
NORAD_CAT_ID   = 67802
ELEMENT_SET_NO = 999
REV_AT_EPOCH   = 385
BSTAR          = .14344E-2
MEAN_MOTION_DOT = .285305E-2
MEAN_MOTION_DDOT = 0

CCSDS_OMM_VERS = 2.0
CREATION_DATE  = 
ORIGINATOR     = 

OBJECT_NAME    = STARLINK-36768
OBJECT_ID      = 2026-032G
CENTER_NAME    = EARTH
REF_FRAME      = TEME
TIME_SYSTEM    = UTC
MEAN_ELEMENT_THEORY = SGP/SGP4

EPOCH          = 2026-03-03T18:00:01.999296
MEAN_MOTION    = 15.75194763
ECCENTRICITY   = .000159
INCLINATION    = 97.2837
RA_OF_ASC_NODE = 248.9661
ARG_OF_PERICENTER = 96.2701
MEAN_ANOMALY   = 125.0536

EPHEMERIS_TYPE = 0
CLASSIFICATION_TYPE = U
NORAD_CAT_ID   = 67803
ELEMENT_SET_NO = 999
REV_AT_EPOCH   = 382
BSTAR          = -.26184E-3
MEAN_MOTION_DOT = -.39016E-3
MEAN_MOTION_DDOT = 0

CCSDS_OMM_VERS = 2.0
CREATION_DATE  = 
ORIGINATOR     = 

OBJECT_NAME    = STARLINK-36792
OBJECT_ID      = 2026-032H
CENTER_NAME    = EARTH
REF_FRAME      = TEME
TIME_SYSTEM    = UTC
MEAN_ELEMENT_THEORY = SGP/SGP4

EPOCH          = 2026-03-03T18:00:01.999296
MEAN_MOTION    = 15.75281679
ECCENTRICITY   = .0001681
INCLINATION    = 97.2838
RA_OF_ASC_NODE = 248.9596
ARG_OF_PERICENTER = 73.8797
MEAN_ANOMALY   = 133.3525

EPHEMERIS_TYPE = 0
CLASSIFICATION_TYPE = U
NORAD_CAT_ID   = 67804
ELEMENT_SET_NO = 999
REV_AT_EPOCH   = 376
BSTAR          = -.70963E-3
MEAN_MOTION_DOT = -.105106E-2
MEAN_MOTION_DDOT = 0

CCSDS_OMM_VERS = 2.0
CREATION_DATE  = 
ORIGINATOR     = 

OBJECT_NAME    = STARLINK-36782
OBJECT_ID      = 2026-032J
CENTER_NAME    = EARTH
REF_FRAME      = TEME
TIME_SYSTEM    = UTC
MEAN_ELEMENT_THEORY = SGP/SGP4

EPOCH          = 2026-03-03T18:20:30.330816
MEAN_MOTION    = 15.80950357
ECCENTRICITY   = .0001826
INCLINATION    = 97.2836
RA_OF_ASC_NODE = 249.0050
ARG_OF_PERICENTER = 110.7249
MEAN_ANOMALY   = 249.4215

EPHEMERIS_TYPE = 0
CLASSIFICATION_TYPE = U
NORAD_CAT_ID   = 67805
ELEMENT_SET_NO = 999
REV_AT_EPOCH   = 385
BSTAR          = .1465E-2
MEAN_MOTION_DOT = .291858E-2
MEAN_MOTION_DDOT = 0

CCSDS_OMM_VERS = 2.0
CREATION_DATE  = 
ORIGINATOR     = 

OBJECT_NAME    = STARLINK-36389
OBJECT_ID      = 2026-032K
CENTER_NAME    = EARTH
REF_FRAME      = TEME
TIME_SYSTEM    = UTC
MEAN_ELEMENT_THEORY = SGP/SGP4

EPOCH          = 2026-03-03T18:00:01.999296
MEAN_MOTION    = 15.75146342
ECCENTRICITY   = .0001773
INCLINATION    = 97.2839
RA_OF_ASC_NODE = 248.9862
ARG_OF_PERICENTER = 90.1831
MEAN_ANOMALY   = 181.1479

EPHEMERIS_TYPE = 0
CLASSIFICATION_TYPE = U
NORAD_CAT_ID   = 67806
ELEMENT_SET_NO = 999
REV_AT_EPOCH   = 382
BSTAR          = .34689E-3
MEAN_MOTION_DOT = .51829E-3
MEAN_MOTION_DDOT = 0

CCSDS_OMM_VERS = 2.0
CREATION_DATE  = 
ORIGINATOR     = 

OBJECT_NAME    = STARLINK-36382
OBJECT_ID      = 2026-032L
CENTER_NAME    = EARTH
REF_FRAME      = TEME
TIME_SYSTEM    = UTC
MEAN_ELEMENT_THEORY = SGP/SGP4

EPOCH          = 2026-03-03T18:00:01.999296
MEAN_MOTION    = 15.76047276
ECCENTRICITY   = .0001851
INCLINATION    = 97.2840
RA_OF_ASC_NODE = 248.9901
ARG_OF_PERICENTER = 82.6328
MEAN_ANOMALY   = 200.1828

EPHEMERIS_TYPE = 0
CLASSIFICATION_TYPE = U
NORAD_CAT_ID   = 67807
ELEMENT_SET_NO = 999
REV_AT_EPOCH   = 376
BSTAR          = -.83183E-2
MEAN_MOTION_DOT = -.1149787E-1
MEAN_MOTION_DDOT = 0

CCSDS_OMM_VERS = 2.0
CREATION_DATE  = 
ORIGINATOR     = 

OBJECT_NAME    = STARLINK-36811
OBJECT_ID      = 2026-032M
CENTER_NAME    = EARTH
REF_FRAME      = TEME
TIME_SYSTEM    = UTC
MEAN_ELEMENT_THEORY = SGP/SGP4

EPOCH          = 2026-03-03T16:44:35.350368
MEAN_MOTION    = 15.80948460
ECCENTRICITY   = .0001409
INCLINATION    = 97.2833
RA_OF_ASC_NODE = 248.9420
ARG_OF_PERICENTER = 90.1806
MEAN_ANOMALY   = 269.9623

EPHEMERIS_TYPE = 0
CLASSIFICATION_TYPE = U
NORAD_CAT_ID   = 67808
ELEMENT_SET_NO = 999
REV_AT_EPOCH   = 384
BSTAR          = .15356E-2
MEAN_MOTION_DOT = .30642E-2
MEAN_MOTION_DDOT = 0

CCSDS_OMM_VERS = 2.0
CREATION_DATE  = 
ORIGINATOR     = 

OBJECT_NAME    = STARLINK-36795
OBJECT_ID      = 2026-032N
CENTER_NAME    = EARTH
REF_FRAME      = TEME
TIME_SYSTEM    = UTC
MEAN_ELEMENT_THEORY = SGP/SGP4

EPOCH          = 2026-03-03T18:00:01.999296
MEAN_MOTION    = 15.75214928
ECCENTRICITY   = .0001493
INCLINATION    = 97.2837
RA_OF_ASC_NODE = 248.9742
ARG_OF_PERICENTER = 84.4332
MEAN_ANOMALY   = 158.8864

EPHEMERIS_TYPE = 0
CLASSIFICATION_TYPE = U
NORAD_CAT_ID   = 67809
ELEMENT_SET_NO = 999
REV_AT_EPOCH   = 382
BSTAR          = -.59779E-3
MEAN_MOTION_DOT = -.88474E-3
MEAN_MOTION_DDOT = 0

CCSDS_OMM_VERS = 2.0
CREATION_DATE  = 
ORIGINATOR     = 

OBJECT_NAME    = STARLINK-36807
OBJECT_ID      = 2026-032P
CENTER_NAME    = EARTH
REF_FRAME      = TEME
TIME_SYSTEM    = UTC
MEAN_ELEMENT_THEORY = SGP/SGP4

EPOCH          = 2026-03-03T16:41:37.356000
MEAN_MOTION    = 15.80938051
ECCENTRICITY   = .0001513
INCLINATION    = 97.2832
RA_OF_ASC_NODE = 248.9437
ARG_OF_PERICENTER = 66.6381
MEAN_ANOMALY   = 293.5047

EPHEMERIS_TYPE = 0
CLASSIFICATION_TYPE = U
NORAD_CAT_ID   = 67810
ELEMENT_SET_NO = 999
REV_AT_EPOCH   = 384
BSTAR          = .14439E-2
MEAN_MOTION_DOT = .287327E-2
MEAN_MOTION_DDOT = 0

CCSDS_OMM_VERS = 2.0
CREATION_DATE  = 
ORIGINATOR     = 

OBJECT_NAME    = STARLINK-36733
OBJECT_ID      = 2026-032Q
CENTER_NAME    = EARTH
REF_FRAME      = TEME
TIME_SYSTEM    = UTC
MEAN_ELEMENT_THEORY = SGP/SGP4

EPOCH          = 2026-03-03T18:10:59.198304
MEAN_MOTION    = 15.80916552
ECCENTRICITY   = .0001233
INCLINATION    = 97.2830
RA_OF_ASC_NODE = 249.0122
ARG_OF_PERICENTER = 86.2646
MEAN_ANOMALY   = 273.8764

EPHEMERIS_TYPE = 0
CLASSIFICATION_TYPE = U
NORAD_CAT_ID   = 67811
ELEMENT_SET_NO = 999
REV_AT_EPOCH   = 385
BSTAR          = .11591E-2
MEAN_MOTION_DOT = .228843E-2
MEAN_MOTION_DDOT = 0

CCSDS_OMM_VERS = 2.0
CREATION_DATE  = 
ORIGINATOR     = 

OBJECT_NAME    = STARLINK-36377
OBJECT_ID      = 2026-032R
CENTER_NAME    = EARTH
REF_FRAME      = TEME
TIME_SYSTEM    = UTC
MEAN_ELEMENT_THEORY = SGP/SGP4

EPOCH          = 2026-03-03T16:35:16.084032
MEAN_MOTION    = 15.80877860
ECCENTRICITY   = .0001411
INCLINATION    = 97.2837
RA_OF_ASC_NODE = 248.9500
ARG_OF_PERICENTER = 63.9246
MEAN_ANOMALY   = 296.2168

EPHEMERIS_TYPE = 0
CLASSIFICATION_TYPE = U
NORAD_CAT_ID   = 67812
ELEMENT_SET_NO = 999
REV_AT_EPOCH   = 384
BSTAR          = .71739E-3
MEAN_MOTION_DOT = .139891E-2
MEAN_MOTION_DDOT = 0

