STARLINK-36773          
1 67801U 26032E   26062.75002314 -.00030042  00000+0 -20124-3 0  9995
2 67801  97.2838 248.9522 0001548  94.8427  92.4870 15.75190689  3762
STARLINK-36739          
1 67802U 26032F   26062.76596603  .00285305  00000+0  14344-2 0  9994
2 67802  97.2838 249.0033 0001483 101.8320 258.3115 15.80932508  3856
STARLINK-36768          
1 67803U 26032G   26062.75002314 -.00039016  00000+0 -26184-3 0  9999
2 67803  97.2837 248.9661 0001590  96.2701 125.0536 15.75194763  3821
STARLINK-36792          
1 67804U 26032H   26062.75002314 -.00105106  00000+0 -70963-3 0  9998
2 67804  97.2838 248.9596 0001681  73.8797 133.3525 15.75281679  3763
STARLINK-36782          
1 67805U 26032J   26062.76423994  .00291858  00000+0  14650-2 0  9999
2 67805  97.2836 249.0050 0001826 110.7249 249.4215 15.80950357  3850
STARLINK-36389          
1 67806U 26032K   26062.75002314  .00051829  00000+0  34689-3 0  9995
2 67806  97.2839 248.9862 0001773  90.1831 181.1479 15.75146342  3828
STARLINK-36382          
1 67807U 26032L   26062.75002314 -.01149787  00000+0 -83183-2 0  9992
2 67807  97.2840 248.9901 0001851  82.6328 200.1828 15.76047276  3769
STARLINK-36811          
1 67808U 26032M   26062.69763137  .00306420  00000+0  15356-2 0  9996
2 67808  97.2833 248.9420 0001409  90.1806 269.9623 15.80948460  3847
STARLINK-36795          
1 67809U 26032N   26062.75002314 -.00088474  00000+0 -59779-3 0  9993
2 67809  97.2837 248.9742 0001493  84.4332 158.8864 15.75214928  3822
STARLINK-36807          
1 67810U 26032P   26062.69557125  .00287327  00000+0  14439-2 0  9992
2 67810  97.2832 248.9437 0001513  66.6381 293.5047 15.80938051  3847
STARLINK-36733          
1 67811U 26032Q   26062.75762961  .00228843  00000+0  11591-2 0  9990
2 67811  97.2830 249.0122 0001233  86.2646 273.8764 15.80916552  3850
STARLINK-36377          
1 67812U 26032R   26062.69115838  .00139891  00000+0  71739-3 0  9994
2 67812  97.2837 248.9500 0001411  63.9246 296.2168 15.80877860  3846
